{
    "links": {
        "self": "http://www.neowsapp.com/rest/v1/neo/3724107?api_key=iIulBulltgU6a56xZRHN4H3l9WmuAYTsLGpBGhQ2"
    },
    "id": "3724107",
    "neo_reference_id": "3724107",
    "name": "(2015 NV13)",
    "designation": "2015 NV13",
    "nasa_jpl_url": "http://ssd.jpl.nasa.gov/sbdb.cgi?sstr=3724107",
    "absolute_magnitude_h": 23.7,
    "estimated_diameter": {
        "kilometers": {
            "estimated_diameter_min": 0.0483676488,
            "estimated_diameter_max": 0.1081533507
        },
        "meters": {
            "estimated_diameter_min": 48.3676488219,
            "estimated_diameter_max": 108.1533506775
        },
        "miles": {
            "estimated_diameter_min": 0.0300542543,
            "estimated_diameter_max": 0.0672033557
        },
        "feet": {
            "estimated_diameter_min": 158.6865169607,
            "estimated_diameter_max": 354.8338390368
        }
    },
    "is_potentially_hazardous_asteroid": false,
    "close_approach_data": [
        {
            "close_approach_date": "2015-08-03",
            "close_approach_date_full": "2015-Aug-03 00:42",
            "epoch_date_close_approach": 1438562520000,
            "relative_velocity": {
                "kilometers_per_second": "8.494301332",
                "kilometers_per_hour": "30579.4847951551",
                "miles_per_hour": "19000.9026495229"
            },
            "miss_distance": {
                "astronomical": "0.1021589093",
                "lunar": "39.7398157177",
                "kilometers": "15282755.232803191",
                "miles": "9496263.7540623958"
            },
            "orbiting_body": "Earth"
        }
    ],
    "orbital_data": {
        "orbit_id": "16",
        "orbit_determination_date": "2017-04-06 08:32:46",
        "first_observation_date": "2015-07-15",
        "last_observation_date": "2015-08-21",
        "data_arc_in_days": 37,
        "observations_used": 60,
        "orbit_uncertainty": "7",
        "minimum_orbit_intersection": ".0789608",
        "jupiter_tisserand_invariant": "3.462",
        "epoch_osculation": "2459000.5",
        "eccentricity": ".5084463558499697",
        "semi_major_axis": "2.211568347519859",
        "inclination": "8.823783114382847",
        "ascending_node_longitude": "132.73690501879",
        "orbital_period": "1201.293079740034",
        "perihelion_distance": "1.087104480510247",
        "perihelion_argument": "193.336930641075",
        "aphelion_distance": "3.336032214529471",
        "perihelion_time": "2458449.786619141315",
        "mean_anomaly": "165.0361768104335",
        "mean_motion": ".299677078034867",
        "equinox": "J2000",
        "orbit_class": {
            "orbit_class_type": "AMO",
            "orbit_class_description": "Near-Earth asteroid orbits similar to that of 1221 Amor",
            "orbit_class_range": "1.017 AU < q (perihelion) < 1.3 AU"
        }
    },
    "is_sentry_object": false
}